EUTELSAT 7A             
1 28187U 04008A   25327.43447477  .00000122  00000+0  00000+0 0  9990
2 28187   5.3065  74.4683 0000759 167.0442 198.3546  1.00271273 79290
EUTELSAT 174A           
1 28924U 05052A   25327.40754321  .00000029  00000+0  00000+0 0  9991
2 28924   3.6963  79.0782 0006089 161.6296 142.6785  1.00269851 50269
EUTELSAT HOTBIRD 13B    
1 29270U 06032A   25327.30650262  .00000177  00000+0  00000+0 0  9997
2 29270   1.1274  84.5341 0003313 155.3490 326.1160  1.00274757 45246
EUTELSAT HOTBIRD 13C    
1 33459U 08065A   25327.32752874 -.00000226  00000+0  00000+0 0  9999
2 33459   2.4186  81.6305 0000802 130.5952 296.2807  1.00053185 45281
EUTELSAT 36B            
1 36101U 09065A   25327.23864220  .00000133  00000+0  00000+0 0  9992
2 36101   0.0417 357.9496 0005883 244.1240 316.8232  1.00269994 58647
EUTELSAT KA-SAT 9A      
1 37258U 10069A   25327.30173590  .00000083  00000+0  00000+0 0  9997
2 37258   0.0567 322.7232 0002262 223.7762 353.6917  1.00269602 41945
EUTELSAT 7 WEST A       
1 37816U 11051A   25327.29844256 -.00000039  00000+0  00000+0 0  9993
2 37816   0.0762  28.4905 0005936 191.8769 302.3198  1.00272800 51815
EUTELSAT 16A            
1 37836U 11057A   25327.30312258  .00000125  00000+0  00000+0 0  9990
2 37836   0.0611 359.0606 0005978 250.0048 298.6021  1.00269776  5263
